[{"OBJECT_NAME":"STARLINK-36061","OBJECT_ID":"2025-280AC","EPOCH":"2026-03-09T22:00:01.999584","MEAN_MOTION":14.98342573,"ECCENTRICITY":0.00023742,"INCLINATION":70.0018,"RA_OF_ASC_NODE":334.0435,"ARG_OF_PERICENTER":266.5384,"MEAN_ANOMALY":170.7781,"EPHEMERIS_TYPE":0,"CLASSIFICATION_TYPE":"U","NORAD_CAT_ID":66847,"ELEMENT_SET_NO":999,"REV_AT_EPOCH":572,"BSTAR":-0.0024858052,"MEAN_MOTION_DOT":-0.00029637,"MEAN_MOTION_DDOT":0},{"OBJECT_NAME":"SL-12 R\/B(AUX MOTOR)","OBJECT_ID":"1990-110G","EPOCH":"2026-03-09T04:53:13.162848","MEAN_MOTION":4.42920553,"ECCENTRICITY":0.57414679,"INCLINATION":65.0331,"RA_OF_ASC_NODE":109.5811,"ARG_OF_PERICENTER":13.4311,"MEAN_ANOMALY":357.0815,"EPHEMERIS_TYPE":0,"CLASSIFICATION_TYPE":"U","NORAD_CAT_ID":21012,"ELEMENT_SET_NO":999,"REV_AT_EPOCH":20100,"BSTAR":0.0014550382,"MEAN_MOTION_DOT":7.114e-5,"MEAN_MOTION_DDOT":0}]
